      'INCLINATION': 52.999,
      'RA_OF_ASC_NODE': 257.2851,
      'ARG_OF_PERICENTER': 75.4255,
      'MEAN_ANOMALY': 220.483,
      'EPHEMERIS_TYPE': 0,
      'CLASSIFICATION_TYPE': 'U',
      'NORAD_CAT_ID': 45779,
      'ELEMENT_SET_NO': 999,
      'REV_AT_EPOCH': 259,
      'BSTAR': 0.00804,
      'MEAN_MOTION_DOT': 0.03426758,
      'MEAN_MOTION_DDOT': 0.01291,
      'SEMIMAJOR_AXIS': 6675.652,
      'PERIOD': 90.469,
      'APOAPSIS': 359.039,
      'PERIAPSIS': 235.994,
      'OBJECT_TYPE': 'PAYLOAD',
      'RCS_SIZE': 'LARGE',
      'COUNTRY_CODE': 'US',
      'LAUNCH_DATE': '2020-06-13',
      'SITE': 'AFETR',
      'DECAY_DATE': null,
      'DECAYED': 0,
      'FILE': 2770103,
      'GP_ID': 156072649,
      'TLE_LINE0': '0 STARLINK-1492',
      'TLE_LINE1':
          '1 45779U 20038BB  20173.58335648  .03426758  12906-1  80355-2 0  9997',
      'TLE_LINE2':
          '2 45779  52.9990 257.2851 0092159  75.4255 220.4830 15.91703705  2595'
    },
    'version': 'v1.0',
    'launch': '5eb87d46ffd86e000604b389',
    'id': '5eed7716096e59000698580e'
  },
  {
    'spaceTrack': {
      'CCSDS_OMM_VERS': '2.0',
      'COMMENT': 'GENERATED VIA SPACE-TRACK.ORG API',
      'CREATION_DATE': '2020-06-21 14:46:10',
      'ORIGINATOR': '18 SPCS',
      'OBJECT_NAME': 'STARLINK-1491',
      'OBJECT_ID': '2020-038BA',
      'CENTER_NAME': 'EARTH',
      'REF_FRAME': 'TEME',
      'TIME_SYSTEM': 'UTC',
      'MEAN_ELEMENT_THEORY': 'SGP4',
      'EPOCH': '2020-06-21 14:00:01.999872',
      'MEAN_MOTION': 15.91593481,
      'ECCENTRICITY': 0.0091774,
      'INCLINATION': 52.999,
      'RA_OF_ASC_NODE': 257.2872,
      'ARG_OF_PERICENTER': 75.3959,
      'MEAN_ANOMALY': 219.4498,
      'EPHEMERIS_TYPE': 0,
      'CLASSIFICATION_TYPE': 'U',
      'NORAD_CAT_ID': 45778,
      'ELEMENT_SET_NO': 999,
      'REV_AT_EPOCH': 259,
      'BSTAR': 0.00839,
      'MEAN_MOTION_DOT': 0.03490173,
      'MEAN_MOTION_DDOT': 0.01414,
      'SEMIMAJOR_AXIS': 6675.96,
      'PERIOD': 90.475,
      'APOAPSIS': 359.093,
      'PERIAPSIS': 236.557,
      'OBJECT_TYPE': 'PAYLOAD',
      'RCS_SIZE': 'LARGE',
      'COUNTRY_CODE': 'US',
      'LAUNCH_DATE': '2020-06-13',
      'SITE': 'AFETR',
      'DECAY_DATE': null,
      'DECAYED': 0,
      'FILE': 2770103,
      'GP_ID': 156072648,
      'TLE_LINE0': '0 STARLINK-1491',
      'TLE_LINE1':
          '1 45778U 20038BA  20173.58335648  .03490173  14139-1  83939-2 0  9999',
      'TLE_LINE2':
          '2 45778  52.9992 257.2872 0091774  75.3959 219.4498 15.91593481  2597'
    },
    'version': 'v1.0',
    'launch': '5eb87d46ffd86e000604b389',
    'id': '5eed7716096e59000698580f'
  },
  {
    'spaceTrack': {
      'CCSDS_OMM_VERS': '2.0',
      'COMMENT': 'GENERATED VIA SPACE-TRACK.ORG API',
      'CREATION_DATE': '2020-06-21 14:46:10',
      'ORIGINATOR': '18 SPCS',
      'OBJECT_NAME': 'STARLINK-1496',
      'OBJECT_ID': '2020-038BC',
      'CENTER_NAME': 'EARTH',
      'REF_FRAME': 'TEME',
      'TIME_SYSTEM': 'UTC',
      'MEAN_ELEMENT_THEORY': 'SGP4',
      'EPOCH': '2020-06-21 14:00:01.999872',
      'MEAN_MOTION': 15.92512423,
      'ECCENTRICITY': 0.0095012,
      'INCLINATION': 52.999,
      'RA_OF_ASC_NODE': 257.273,
      'ARG_OF_PERICENTER': 75.4301,
      'MEAN_ANOMALY': 226.7046,
      'EPHEMERIS_TYPE': 0,
      'CLASSIFICATION_TYPE': 'U',
      'NORAD_CAT_ID': 45780,
      'ELEMENT_SET_NO': 999,
      'REV_AT_EPOCH': 240,
      'BSTAR': 0.00728,
      'MEAN_MOTION_DOT': 0.03371151,
      'MEAN_MOTION_DDOT': 0.01235,
      'SEMIMAJOR_AXIS': 6673.391,
      'PERIOD': 90.423,
      'APOAPSIS': 358.662,
      'PERIAPSIS': 231.851,
      'OBJECT_TYPE': 'PAYLOAD',
      'RCS_SIZE': 'MEDIUM',
      'COUNTRY_CODE': 'US',
      'LAUNCH_DATE': '2020-06-13',
      'SITE': 'AFETR',
      'DECAY_DATE': null,
      'DECAYED': 0,
      'FILE': 2770102,
      'GP_ID': 156072451,
      'TLE_LINE0': '0 STARLINK-1496',
      'TLE_LINE1':
          '1 45780U 20038BC  20173.58335648  .03371151  12352-1  72808-2 0  9994',
      'TLE_LINE2':
          '2 45780  52.9993 257.2730 0095012  75.4301 226.7046 15.92512423  2403'
    },
    'version': 'v1.0',
    'launch': '5eb87d46ffd86e000604b389',
    'id': '5eed7716096e590006985810'
  },
  {
    'spaceTrack': {
      'CCSDS_OMM_VERS': '2.0',
      'COMMENT': 'GENERATED VIA SPACE-TRACK.ORG API',
      'CREATION_DATE': '2020-06-21 14:46:10',
      'ORIGINATOR': '18 SPCS',
      'OBJECT_NAME': 'STARLINK-1501',
      'OBJECT_ID': '2020-038AK',
      'CENTER_NAME': 'EARTH',
      'REF_FRAME': 'TEME',
      'TIME_SYSTEM': 'UTC',
      'MEAN_ELEMENT_THEORY': 'SGP4',
      'EPOCH': '2020-06-21 14:00:01.999872',
      'MEAN_MOTION': 15.92157108,
      'ECCENTRICITY': 0.009435,
      'INCLINATION': 52.999,
      'RA_OF_ASC_NODE': 257.2787,
      'ARG_OF_PERICENTER': 75.4669,
      'MEAN_ANOMALY': 223.8499,
      'EPHEMERIS_TYPE': 0,
      'CLASSIFICATION_TYPE': 'U',
      'NORAD_CAT_ID': 45763,
      'ELEMENT_SET_NO': 999,
      'REV_AT_EPOCH': 240,
      'BSTAR': 0.00789,
      'MEAN_MOTION_DOT': 0.03473754,
      'MEAN_MOTION_DDOT': 0.01419,
      'SEMIMAJOR_AXIS': 6674.384,
      'PERIOD': 90.443,
      'APOAPSIS': 359.222,
      'PERIAPSIS': 233.276,
      'OBJECT_TYPE': 'PAYLOAD',
      'RCS_SIZE': 'LARGE',
      'COUNTRY_CODE': 'US',
      'LAUNCH_DATE': '2020-06-13',
      'SITE': 'AFETR',
      'DECAY_DATE': null,
      'DECAYED': 0,
      'FILE': 2770103,
      'GP_ID': 156072466,
      'TLE_LINE0': '0 STARLINK-1501',
      'TLE_LINE1':
          '1 45763U 20038AK  20173.58335648  .03473754  14191-1  78939-2 0  9991',
      'TLE_LINE2':
          '2 45763  52.9993 257.2787 0094350  75.4669 223.8499 15.92157108  2402'
    },
    'version': 'v1.0',
    'launch': '5eb87d46ffd86e000604b389',
    'id': '5eed7716096e590006985811'
  },
  {
    'spaceTrack': {
      'CCSDS_OMM_VERS': '2.0',
      'COMMENT': 'GENERATED VIA SPACE-TRACK.ORG API',
      'CREATION_DATE': '2020-06-21 14:46:10',
      'ORIGINATOR': '18 SPCS',
      'OBJECT_NAME': 'STARLINK-1510',
      'OBJECT_ID': '2020-038BG',
      'CENTER_NAME': 'EARTH',
      'REF_FRAME': 'TEME',
      'TIME_SYSTEM': 'UTC',
      'MEAN_ELEMENT_THEORY': 'SGP4',
      'EPOCH': '2020-06-21 14:00:01.999872',
      'MEAN_MOTION': 15.92324256,
      'ECCENTRICITY': 0.0093915,
      'INCLINATION': 52.999,
      'RA_OF_ASC_NODE': 257.273,
      'ARG_OF_PERICENTER': 75.352,
      'MEAN_ANOMALY': 226.7448,
      'EPHEMERIS_TYPE': 0,
      'CLASSIFICATION_TYPE': 'U',
      'NORAD_CAT_ID': 45784,
      'ELEMENT_SET_NO': 999,
      'REV_AT_EPOCH': 240,
      'BSTAR': 0.00752,
      'MEAN_MOTION_DOT': 0.03393084,
      'MEAN_MOTION_DDOT': 0.01264,
      'SEMIMAJOR_AXIS': 6673.917,
      'PERIOD': 90.433,
      'APOAPSIS': 358.46,
      'PERIAPSIS': 233.104,
      'OBJECT_TYPE': 'PAYLOAD',
      'RCS_SIZE': 'MEDIUM',
      'COUNTRY_CODE': 'US',
      'LAUNCH_DATE': '2020-06-13',
      'SITE': 'AFETR',
      'DECAY_DATE': null,
      'DECAYED': 0,
      'FILE': 2770102,
      'GP_ID': 156072637,
      'TLE_LINE0': '0 STARLINK-1510',
      'TLE_LINE1':
          '1 45784U 20038BG  20173.58335648  .03393084  12643-1  75170-2 0  9995',
      'TLE_LINE2':
          '2 45784  52.9993 257.2730 0093915  75.3520 226.7448 15.92324256  2400'
    },
    'version': 'v1.0',
    'launch': '5eb87d46ffd86e000604b389',
    'id': '5eed7716096e590006985812'
  },
  {
    'spaceTrack': {
      'CCSDS_OMM_VERS': '2.0',
      'COMMENT': 'GENERATED VIA SPACE-TRACK.ORG API',
      'CREATION_DATE': '2020-06-21 14:56:09',
      'ORIGINATOR': '18 SPCS',
      'OBJECT_NAME': 'STARLINK-1511',
      'OBJECT_ID': '2020-038AP',
      'CENTER_NAME': 'EARTH',
      'REF_FRAME': 'TEME',
      'TIME_SYSTEM': 'UTC',
      'MEAN_ELEMENT_THEORY': 'SGP4',
      'EPOCH': '2020-06-21 14:00:01.999872',
      'MEAN_MOTION': 15.9239136,
      'ECCENTRICITY': 0.0094028,
      'INCLINATION': 52.999,
      'RA_OF_ASC_NODE': 257.2712,
      'ARG_OF_PERICENTER': 75.2955,
      'MEAN_ANOMALY': 227.9036,
      'EPHEMERIS_TYPE': 0,
      'CLASSIFICATION_TYPE': 'U',
      'NORAD_CAT_ID': 45767,
      'ELEMENT_SET_NO': 999,
      'REV_AT_EPOCH': 240,
      'BSTAR': 0.00742,
      'MEAN_MOTION_DOT': 0.03377153,
      'MEAN_MOTION_DDOT': 0.01239,
      'SEMIMAJOR_AXIS': 6673.73,
      'PERIOD': 90.43,
      'APOAPSIS': 358.346,
      'PERIAPSIS': 232.843,
      'OBJECT_TYPE': 'PAYLOAD',
      'RCS_SIZE': 'LARGE',
      'COUNTRY_CODE': 'US',
      'LAUNCH_DATE': '2020-06-13',
      'SITE': 'AFETR',
      'DECAY_DATE': null,
      'DECAYED': 0,
      'FILE': 2770121,
      'GP_ID': 156072838,
      'TLE_LINE0': '0 STARLINK-1511',
      'TLE_LINE1':
          '1 45767U 20038AP  20173.58335648  .03377153  12391-1  74199-2 0  9995',
      'TLE_LINE2':
          '2 45767  52.9990 257.2712 0094028  75.2955 227.9036 15.92391360  2401'
    },
    'version': 'v1.0',
    'launch': '5eb87d46ffd86e000604b389',
    'id': '5eed7716096e590006985813'
  },
  {
    'spaceTrack': {
      'CCSDS_OMM_VERS': '2.0',
      'COMMENT': 'GENERATED VIA SPACE-TRACK.ORG API',
      'CREATION_DATE': '2020-06-21 14:46:10',
      'ORIGINATOR': '18 SPCS',
      'OBJECT_NAME': 'STARLINK-1495',
      'OBJECT_ID': '2020-038AH',
      'CENTER_NAME': 'EARTH',
      'REF_FRAME': 'TEME',
      'TIME_SYSTEM': 'UTC',
      'MEAN_ELEMENT_THEORY': 'SGP4',
      'EPOCH': '2020-06-21 14:00:01.999872',
      'MEAN_MOTION': 15.92190333,
      'ECCENTRICITY': 0.0093575,
      'INCLINATION': 52.999,
      'RA_OF_ASC_NODE': 257.2749,
      'ARG_OF_PERICENTER': 75.3566,
      'MEAN_ANOMALY': 225.8509,
      'EPHEMERIS_TYPE': 0,
      'CLASSIFICATION_TYPE': 'U',
      'NORAD_CAT_ID': 45761,
      'ELEMENT_SET_NO': 999,
      'REV_AT_EPOCH': 240,
      'BSTAR': 0.00771,
      'MEAN_MOTION_DOT': 0.03421883,
      'MEAN_MOTION_DDOT': 0.01311,
      'SEMIMAJOR_AXIS': 6674.291,
      'PERIOD': 90.441,
      'APOAPSIS': 358.611,
      'PERIAPSIS': 233.702,
      'OBJECT_TYPE': 'PAYLOAD',
      'RCS_SIZE': 'MEDIUM',
      'COUNTRY_CODE': 'US',
